SL-3 R/B                
1 19046U 88032B   19011.51129401  .00000754  00000-0  60374-4 0  9996
2 19046  97.4568  49.2337 0038087 184.1133 175.9785 15.02526690658722
SL-16 R/B               
1 19120U 88039B   19011.55193506 -.00000194  00000-0 -69367-4 0  9998
2 19120  71.0120 193.4174 0020923  23.6060 336.6020 14.19192157587738
COSMOS 1953             
1 19210U 88050A   19011.55109536 -.00000176  00000-0 -14199-4 0  9994
2 19210  82.5157 197.2724 0014954 103.8961 256.3930 15.05696287664100
SL-8 R/B                
1 19257U 88053B   19011.16193834  .00000059  00000-0  28629-4 0  9990
2 19257  74.0479 243.1305 0020550 348.8240 145.5818 14.37425283601093
COSMOS 1975             
1 19573U 88093A   19011.47980326  .00000082  00000-0  37587-5 0  9999
2 19573  82.5210 150.6219 0015351 142.0303 218.2009 15.04608712646009
SL-14 R/B               
1 19574U 88093B   19011.01177814  .00000067  00000-0  52413-5 0  9998
2 19574  82.5331 329.4839 0022455  31.5606  13.2242 14.83285906634369
SL-16 R/B               
1 19650U 88102B   19010.94330015 -.00000302  00000-0 -12923-3 0  9993
2 19650  70.9989 250.7333 0013227  22.1003 338.0687 14.15776966556789
INTERCOSMOS 24          
1 20261U 89080A   19011.09597696  .00000203  00000-0  58261-4 0  9990
2 20261  82.6013 358.9267 1202685 215.3619 136.1681 12.56029082337884
SL-14 R/B               
1 20262U 89080C   19011.54456107  .00000052  00000-0  87644-5 0  9992
2 20262  82.5924  48.8712 1237605  29.4437 337.0893 12.48909913333285
DELTA 1 R/B             
1 20323U 89089B   19011.50483608  .00000032  00000-0  17298-4 0  9996
2 20323  97.0839 237.0118 0073281  77.6962 283.2427 14.48285444537702
DELTA 2 R/B(1)          
1 20453U 90008B   19011.49391138  .00001277  00000-0  73298-4 0  9991
2 20453  35.6268  97.8484 0284842 262.5359  94.2910 14.84640141533410
COSMOS 2058             
1 20465U 90010A   19011.19508570  .00000226  00000-0  16866-4 0  9995
2 20465  82.4885  56.7851 0016102 159.1017 201.0868 14.97815923571108
SL-14 R/B               
1 20466U 90010B   19010.92054554  .00000057  00000-0  43502-5 0  9994
2 20466  82.5018 196.6927 0019062 256.3514 103.5577 14.81343947541224
SL-14 R/B               
1 20511U 90018B   19010.91805647  .00000070  00000-0  62056-5 0  9999
2 20511  82.5239 140.7466 0018376  39.0761 100.2696 14.80001038535674
HST                     
1 20580U 90037B   19011.56597479  .00000351  00000-0  10400-4 0  9996
2 20580  28.4680 177.4830 0002568 221.0905 207.7660 15.09157053376971
SL-16 R/B               
1 20625U 90046B   19011.46252161 -.00000319  00000-0 -14110-3 0  9998
2 20625  70.9992  25.9246 0016288 309.8710  50.0979 14.14638386478906
COSMOS 2084             
1 20663U 90055A   19010.81398509  .00000031  00000-0  21099-4 0  9999
2 20663  62.7938 116.4535 0098873 148.4263 212.2816 14.91929612545226
SL-6 R/B(2)             
1 20666U 90055D   19011.22603339 -.00000112  00000-0  78384-5 0  9999
2 20666  62.7862  32.6179 0065893 173.4893 186.7073 14.92205780546686
SL-8 R/B                
1 20775U 90078B   19010.91840833  .00002543  00000-0  12360-3 0  9991
2 20775  82.9292 297.8391 0580428  14.8701 346.8764 14.32795652430731
SL-8 R/B                
1 21088U 91006B   19010.97340053  .00000072  00000-0  57229-4 0  9995
2 21088  82.9439 314.4118 0022993 153.4728 278.2015 13.77107536404163
OKEAN-3                 
1 21397U 91039A   19011.42787658  .00000178  00000-0  14605-4 0  9999
2 21397  82.5232 313.7721 0019263 117.3117 243.0068 14.92753837495293
COSMOS 2151             
1 21422U 91042A   19011.50516258  .00000183  00000-0  15518-4 0  9997
2 21422  82.4998  60.7936 0014390 173.6575 186.4830 14.92013397493987
SL-14 R/B               
1 21423U 91042B   19010.95215364  .00000083  00000-0  78757-5 0  9994
2 21423  82.4947 146.1633 0017877 169.5197 190.6392 14.79752231487280
ERS-1                   
1 21574U 91050A   19011.20154798  .00000025  00000-0  22784-4 0  9996
2 21574  98.5311 321.5293 0033893  46.6898 313.7106 14.37676577439921
ARIANE 40 R/B           
1 21610U 91050F   19011.29775420 -.00000011  00000-0  10314-4 0  9999
2 21610  98.5304  78.8642 0003760  45.3350   3.4099 14.40860766442649
INTERCOSMOS 25          
1 21819U 91086A   19011.19217773 -.00000545  00000-0 -11206-3 0  9993
2 21819  82.5885  79.5758 1516569 306.8411  40.2698 12.04935172181278
SL-14 R/B               
1 21820U 91086B   19011.45952938  .00000162  00000-0  26687-4 0  9996
2 21820  82.5616 140.2870 1576417 157.2718 210.6813 11.93428554175160
SL-8 R/B                
1 21876U 92008B   19010.70589639  .00000068  00000-0  54906-4 0  9993
2 21876  82.9259  51.6993 0033667 234.6084 265.1282 13.75630586349866
SL-8 R/B                
1 21938U 92020B   19011.37881461  .00000046  00000-0  31514-4 0  9994
2 21938  82.9315 294.9100 0030136  35.0670 104.4855 13.75262721342071
SL-16 R/B               
1 22220U 92076B   19010.92340895 -.00000173  00000-0 -62931-4 0  9991
2 22220  71.0007 293.6389 0010919 126.8864 300.4951 14.16437649351545
SL-16 R/B               
1 22285U 92093B   19011.54304610  .00000148  00000-0  10085-3 0  9997
2 22285  71.0219  89.5090 0005523 311.9706  48.0945 14.15026430343640
COSMOS 2228             
1 22286U 92094A   19011.09436996  .00000149  00000-0  13405-4 0  9993
2 22286  82.5190 193.7085 0021734  23.1068 337.1122 14.88004264407688
SL-16 R/B               
1 22566U 93016B   19010.90533128  .00000095  00000-0  73812-4 0  9991
2 22566  71.0091 304.7342 0011353 330.7689  29.2797 14.14960267332276
COSMOS 2242             
1 22626U 93024A   19010.61879372  .00000145  00000-0  13076-4 0  9991
2 22626  82.5205 222.0656 0019616  24.6522 335.5628 14.87866325390968
SL-16 R/B               
1 22803U 93059B   19011.52350133 -.00000168  00000-0 -59841-4 0  9993
2 22803  70.9911 121.2651 0019236 237.0306 122.8969 14.16803461309490
ARIANE 40 R/B           
1 22830U 93061H   19011.52523580 -.00000058  00000-0 -46848-5 0  9996
2 22830  98.8368  48.6962 0011668  56.3155 303.9138 14.31430418320260
COSMOS 2278             
1 23087U 94023A   19010.88911347  .00000299  00000-0  18298-3 0  9991
2 23087  71.0520 241.9825 0007208  55.2425 304.9375 14.13778218275195
SL-16 R/B               
1 23088U 94023B   19010.87610905  .00000175  00000-0  11548-3 0  9991
2 23088  70.9976 160.0587 0005074 293.1705  66.8883 14.14669008276262
SL-16 R/B               
1 23343U 94074B   19011.16801226  .00000011  00000-0  89789-5 0  9995
2 23343  98.0769  61.3457 0007703  42.6603  12.5347 14.76760524301390
SL-16 R/B               
1 23405U 94077B   19010.87527601 -.00000073  00000-0 -12855-4 0  9995
2 23405  70.9831  91.3204 0003385 218.8012 141.2868 14.15209180246287
ERS-2                   
1 23560U 95021A   19010.90130109  .00000830  00000-0  39954-4 0  9992
2 23560  98.5118  90.0210 0004247 142.7058 217.4470 15.22228219262443
ARIANE 40+ R/B          
1 23561U 95021B   19010.97373171  .00000000  00000-0  15357-4 0  9998
2 23561  98.7807  35.3168 0007008  13.5835  45.8188 14.37903839243341
SL-16 R/B               
1 23705U 95058B   19011.22761329  .00000111  00000-0  81397-4 0  9993
2 23705  71.0225 266.7450 0011327 154.1580 206.0111 14.15122457198252
SL-16 R/B               
1 24298U 96051B   19010.94133611 -.00000081  00000-0 -17588-4 0  9999
2 24298  70.8270 294.5663 0012840  45.9170 314.3005 14.12392416152431
ORBVIEW 2 (SEASTAR)     
1 24883U 97037A   19010.91404994  .00000018  00000-0  22258-4 0  9994
2 24883  98.5740 123.0670 0002107 185.6750 174.4411 14.33485801133704
SL-16 R/B               
1 25400U 98043G   19011.49205872 -.00000017  00000-0  11138-4 0  9991
2 25400  98.5576 313.5870 0010959  63.3704 296.8597 14.25436292 66744
SL-16 R/B               
1 25407U 98045B   19010.94230487 -.00000257  00000-0 -10658-3 0  9991
2 25407  71.0118 277.7863 0005988  40.4129 319.7438 14.15779661 56988
ISS (ZARYA)             
1 25544U 98067A   19011.82135417  .00000942  00000-0  21721-4 0  9995
2 25544  51.6427  59.0053 0002374 274.2536  61.2293 15.53756954150957
SL-8 R/B                
1 25723U 99022C   19011.37262673  .00006500  00000-0  76128-4 0  9998
2 25723  48.4154 331.0638 0007742 295.1142  64.9003 15.62772311 95905
CZ-4B R/B               
1 25732U 99025C   19010.92691509 -.00000047  00000-0 -24181-6 0  9991
2 25732  98.9867  29.6836 0036401 261.3093 159.0568 14.17658514 17644
OKEAN-O                 
1 25860U 99039A   19010.90797060  .00000009  00000-0  89768-5 0  9992
2 25860  98.2248  15.2410 0001854  94.0358 266.1063 14.76584901 48254
SL-16 R/B               
1 25861U 99039B   19010.93335267  .00000005  00000-0  81860-5 0  9994
2 25861  98.1750 358.6702 0016602  43.0666   9.3103 14.78512163 50262
TERRA                   
1 25994U 99068A   19011.18345167  .00000168  00000-0  47244-4 0  9998
2 25994  98.2078  88.0215 0001058  93.9926 266.1383 14.57115060 14117
ENVISAT                 
1 27386U 02009A   19011.51551576 -.00000013  00000-0  91125-5 0  9992
2 27386  98.1640  40.5136 0001218  87.5375  33.9730 14.37938820883461
IDEFIX & ARIANE 42P R/B 
1 27422U 02021B   19010.95295212 -.00000034  00000-0  27400-5 0  9994
2 27422  98.2806 350.9084 0011986 345.1039  14.9789 14.29267254870387
AQUA                    
1 27424U 02022A   19011.56853692  .00000069  00000-0  25295-4 0  9993
2 27424  98.2184 314.6839 0002236 127.3420 350.2457 14.57111287887779
CZ-4B R/B               
1 27432U 02024C   19011.16316958 -.00000035  00000-0  56728-5 0  9999
2 27432  99.0563   0.2489 0049930 212.1541 195.8880 14.14074270859771
MIDORI II (ADEOS-II)    
1 27597U 02056A   19010.91395838  .00000022  00000-0  26098-4 0  9993
2 27597  98.4516 328.7512 0002127  85.6818 274.4606 14.27380625837129
H-2A R/B                
1 27601U 02056E   19010.81108304  .00000020  00000-0  22184-4 0  9998
2 27601  98.3003  66.4248 0072756  36.5169  92.4566 14.31872943839754
